GLOBALSTAR M023         
1 25621U 99004A   26016.31170777 -.00000051  00000+0  29189-3 0  9994
2 25621  52.0102 124.4661 0009431 234.8922 143.4693 12.62514000242659
GLOBALSTAR M040         
1 25622U 99004B   26016.29029438 -.00000131  00000+0 -15544-3 0  9999
2 25622  51.9922 128.9991 0001768 127.0458 251.6324 12.62026626242166
GLOBALSTAR M036         
1 25623U 99004C   26016.31586801 -.00000060  00000+0  32761-3 0  9995
2 25623  51.9984  38.5485 0010821  99.7455 273.4930 11.86616674204280
GLOBALSTAR M038         
1 25624U 99004D   26016.15847243 -.00000081  00000+0  11559-3 0  9993
2 25624  51.9951 178.2313 0002813 121.8766  49.4233 12.32539294228637
GLOBALSTAR M022         
1 25649U 99012A   26016.27491602 -.00000063  00000+0  28562-3 0  9998
2 25649  52.0047  71.6266 0002657 220.9982 170.1073 12.02508684202016
GLOBALSTAR M041         
1 25650U 99012B   26016.21100244 -.00000057  00000+0  36723-3 0  9994
2 25650  52.0045 319.7480 0001712  32.8370 327.2573 11.96682873203782
GLOBALSTAR M046         
1 25651U 99012C   26016.23113807 -.00000071  00000+0  19057-3 0  9993
2 25651  52.0078  14.1032 0001816 323.3645  48.8942 12.09418764209442
GLOBALSTAR M037         
1 25652U 99012D   26016.09428175 -.00000076  00000+0  15237-3 0  9996
2 25652  51.9991 255.6692 0001515 328.7678 195.8789 12.62459164238161
